NORAD_CAT_ID,OBJECT_NAME,OBJECT_TYPE,EPOCH,MEAN_MOTION,ECCENTRICITY,INCLINATION,RA_OF_ASC_NODE,ARG_OF_PERICENTER,MEAN_ANOMALY,BSTAR,MEAN_MOTION_DOT,MEAN_MOTION_DDOT,TLE_LINE0,TLE_LINE1,TLE_LINE2,SEMIMAJOR_AXIS,PERIOD,APOGEE,PERIGEE,DECAYED
51137.0,STARLINK-3180,PAYLOAD,2024-03-02 03:11:59,15.08804426,0.0001493,53.2193,10.1342,116.7944,243.3201,0.00055906,8.612e-05,0.0,0 STARLINK-3180,1 51137U 22005AK  24062.13333168  .00008612  00000-0  55906-3 0  9993,2 51137  53.2193  10.1342 0001493 116.7944 243.3201 15.08804426118500,6917.989,95.44,540.887,538.821,0.0
51137.0,STARLINK-3180,PAYLOAD,2024-03-03 03:02:46,15.08844076,0.0001491,53.2195,5.6817,96.2187,263.8975,3.1656e-05,2.16e-06,0.0,0 STARLINK-3180,1 51137U 22005AK  24063.12692456  .00000216  00000-0  31656-4 0  9990,2 51137  53.2195   5.6817 0001491  96.2187 263.8975 15.08844076118653,6917.868,95.437,540.764,538.701,0.0
51137.0,STARLINK-3180,PAYLOAD,2024-03-03 20:32:01,15.08834531,0.0001813,53.2198,2.4153,124.3562,235.7602,-2.0974e-06,-3.21e-06,0.0,0 STARLINK-3180,1 51137U 22005AK  24063.85557250 -.00000321  00000-0 -20974-5 0  9993,2 51137  53.2198   2.4153 0001813 124.3562 235.7602 15.08834531117651,6917.897,95.438,541.016,538.508,0.0
51137.0,STARLINK-3180,PAYLOAD,2024-03-04 12:25:51,15.08843795,0.0001335,53.2191,359.4335,100.6219,259.4924,9.6455e-05,1.248e-05,0.0,0 STARLINK-3180,1 51137U 22005AK  24064.51796290  .00001248  00000-0  96455-4 0  9999,2 51137  53.2191 359.4335 0001335 100.6219 259.4924 15.08843795117759,6917.869,95.437,540.657,538.81,0.0
51137.0,STARLINK-3180,PAYLOAD,2024-03-05 02:44:20,15.08841471,0.0001224,53.2179,356.7574,109.9135,250.1989,2.7436e-05,1.49e-06,0.0,0 STARLINK-3180,1 51137U 22005AK  24065.11412933  .00000149  00000-0  27436-4 0  9997,2 51137  53.2179 356.7574 0001224 109.9135 250.1989 15.08841471118957,6917.876,95.437,540.588,538.894,0.0
51137.0,STARLINK-3180,PAYLOAD,2024-03-06 04:10:31,15.08843624,0.0001599,53.2192,351.9991,83.8733,276.2442,6.9628e-05,8.2e-06,0.0,0 STARLINK-3180,1 51137U 22005AK  24066.17397395  .00000820  00000-0  69628-4 0  9993,2 51137  53.2192 351.9991 0001599  83.8733 276.2442 15.08843624119115,6917.869,95.437,540.84,538.628,0.0
51137.0,STARLINK-3180,PAYLOAD,2024-03-07 11:58:14,15.08835709,0.0001415,53.2204,346.0537,82.5136,277.6017,-4.0169e-05,-9.27e-06,0.0,0 STARLINK-3180,1 51137U 22005AK  24067.49878301 -.00000927  00000-0 -40169-4 0  9999,2 51137  53.2204 346.0537 0001415  82.5136 277.6017 15.08835709118207,6917.894,95.438,540.737,538.78,0.0
51137.0,STARLINK-3180,PAYLOAD,2024-03-08 00:41:19,15.08842307,0.0001712,53.2202,343.6747,98.175,261.9436,8.7527e-06,-1.49e-06,0.0,0 STARLINK-3180,1 51137U 22005AK  24068.02870045 -.00000149  00000-0  87527-5 0  9991,2 51137  53.2202 343.6747 0001712  98.1750 261.9436 15.08842307119390,6917.873,95.437,540.923,538.554,0.0
51137.0,STARLINK-3180,PAYLOAD,2024-03-08 11:49:01,15.08845405,0.0001679,53.2202,341.5922,91.7945,268.3239,1.9707e-05,2.6e-07,0.0,0 STARLINK-3180,1 51137U 22005AK  24068.49237759  .00000026  00000-0  19707-4 0  9998,2 51137  53.2202 341.5922 0001679  91.7945 268.3239 15.08845405118358,6917.864,95.437,540.89,538.567,0.0
51137.0,STARLINK-3180,PAYLOAD,2024-03-09 03:42:51,15.08864016,0.0001417,53.2204,338.6191,103.9626,256.1524,0.00019091,2.754e-05,0.0,0 STARLINK-3180,1 51137U 22005AK  24069.15475832  .00002754  00000-0  19091-3 0  9993,2 51137  53.2204 338.6191 0001417 103.9626 256.1524 15.08864016119562,6917.807,95.436,540.652,538.692,0.0
51137.0,STARLINK-3180,PAYLOAD,2024-03-09 18:01:18,15.08927685,8.41e-05,53.2166,335.9374,79.5268,280.5819,-0.0011915,-0.00019245,0.0,0 STARLINK-3180,1 51137U 22005AK  24069.75091073 -.00019245  00000-0 -11915-2 0  9991,2 51137  53.2166 335.9374 0000841  79.5268 280.5819 15.08927685119652,6917.612,95.432,540.059,538.896,0.0
51137.0,STARLINK-3180,PAYLOAD,2024-03-10 00:22:53,15.08840428,0.0001549,53.2175,334.7524,94.1006,266.0163,0.00014429,2.009e-05,0.0,0 STARLINK-3180,1 51137U 22005AK  24070.01589460  .00002009  00000-0  14429-3 0  9996,2 51137  53.2175 334.7524 0001549  94.1006 266.0163 15.08840428119699,6917.879,95.438,540.816,538.673,0.0
51137.0,STARLINK-3180,PAYLOAD,2024-03-10 21:02:55,15.08835398,0.0001111,53.2185,330.8883,83.3987,276.7131,-3.2501e-05,-8.05e-06,0.0,0 STARLINK-3180,1 51137U 22005AK  24070.87702554 -.00000805  00000-0 -32501-4 0  9997,2 51137  53.2185 330.8883 0001111  83.3987 276.7131 15.08835398119826,6917.894,95.438,540.528,538.991,0.0
51137.0,STARLINK-3180,PAYLOAD,2024-03-10 22:38:18,15.08837085,0.0001207,53.2194,330.5911,84.7418,275.3712,-1.6035e-05,-5.43e-06,0.0,0 STARLINK-3180,1 51137U 22005AK  24070.94326394 -.00000543  00000-0 -16035-4 0  9992,2 51137  53.2194 330.5911 0001207  84.7418 275.3712 15.08837085118728,6917.889,95.438,540.589,538.919,0.0
51137.0,STARLINK-3180,PAYLOAD,2024-03-11 03:24:26,15.08846637,0.0001253,53.2172,329.6978,94.2525,265.861,-5.0938e-05,-1.099e-05,0.0,0 STARLINK-3180,1 51137U 22005AK  24071.14197853 -.00001099  00000-0 -50938-4 0  9998,2 51137  53.2172 329.6978 0001253  94.2525 265.8610 15.08846637119862,6917.86,95.437,540.592,538.858,0.0
51137.0,STARLINK-3180,PAYLOAD,2024-03-11 09:45:59,15.08845463,0.0001265,53.2171,328.5082,93.7332,266.3805,-4.4665e-05,-9.99e-06,0.0,0 STARLINK-3180,1 51137U 22005AK  24071.40693835 -.00000999  00000-0 -44665-4 0  9996,2 51137  53.2171 328.5082 0001265  93.7332 266.3805 15.08845463118797,6917.864,95.437,540.604,538.854,0.0
51137.0,STARLINK-3180,PAYLOAD,2024-03-11 17:42:55,15.08839885,0.0001007,53.2169,327.0211,80.4576,279.653,5.5358e-05,5.93e-06,0.0,0 STARLINK-3180,1 51137U 22005AK  24071.73814090  .00000593  00000-0  55358-4 0  9999,2 51137  53.2169 327.0211 0001007  80.4576 279.6530 15.08839885119951,6917.881,95.438,540.442,539.049,0.0
51137.0,STARLINK-3180,PAYLOAD,2024-03-12 15:58:19,15.08839271,0.0001511,53.2174,322.8591,90.7191,269.3975,8.479e-05,1.062e-05,0.0,0 STARLINK-3180,1 51137U 22005AK  24072.66550444  .00001062  00000-0  84790-4 0  9996,2 51137  53.2174 322.8591 0001511  90.7191 269.3975 15.08839271118988,6917.883,95.438,540.793,538.702,0.0
51137.0,STARLINK-3180,PAYLOAD,2024-03-13 01:30:37,15.08846479,0.000157,53.2179,321.0753,102.3843,257.7325,7.6622e-05,9.32e-06,0.0,0 STARLINK-3180,1 51137U 22005AK  24073.06293922  .00000932  00000-0  76622-4 0  9996,2 51137  53.2179 321.0753 0001570 102.3843 257.7325 15.08846479120153,6917.861,95.437,540.812,538.639,0.0
51137.0,STARLINK-3180,PAYLOAD,2024-03-13 09:27:34,15.08837436,0.0001437,53.2168,319.5889,91.4097,268.706,5.8551e-05,6.44e-06,0.0,0 STARLINK-3180,1 51137U 22005AK  24073.39414598  .00000644  00000-0  58551-4 0  9997,2 51137  53.2168 319.5889 0001437  91.4097 268.7060 15.08837436120201,6917.888,95.438,540.747,538.759,0.0
51137.0,STARLINK-3180,PAYLOAD,2024-03-13 22:10:39,15.08841795,0.0001643,53.217,317.2089,101.6335,258.4841,6.833e-06,-1.79e-06,0.0,0 STARLINK-3180,1 51137U 22005AK  24073.92406432 -.00000179  00000-0  68330-5 0  9995,2 51137  53.2170 317.2089 0001643 101.6335 258.4841 15.08841795119179,6917.875,95.437,540.877,538.603,0.0
51137.0,STARLINK-3180,PAYLOAD,2024-03-14 20:26:03,15.08839134,0.0001555,53.2163,313.0481,77.6187,282.4979,2.3425e-05,8.5e-07,0.0,0 STARLINK-3180,1 51137U 22005AK  24074.85142695  .00000085  00000-0  23425-4 0  9996,2 51137  53.2163 313.0481 0001555  77.6187 282.4979 15.08839134120423,6917.883,95.438,540.824,538.672,0.0
51137.0,STARLINK-3180,PAYLOAD,2024-03-14 22:01:26,15.08837774,0.0001403,53.2164,312.7513,75.3255,284.7893,1.9584e-05,2.4e-07,0.0,0 STARLINK-3180,1 51137U 22005AK  24074.91766772  .00000024  00000-0  19584-4 0  9995,2 51137  53.2164 312.7513 0001403  75.3255 284.7893 15.08837774119324,6917.887,95.438,540.723,538.782,0.0
51137.0,STARLINK-3180,PAYLOAD,2024-03-15 01:12:12,15.08846889,0.0001183,53.2177,312.1547,93.0103,267.1025,5.9608e-05,6.61e-06,0.0,0 STARLINK-3180,1 51137U 22005AK  24075.05013964  .00000661  00000-0  59608-4 0  9997,2 51137  53.2177 312.1547 0001183  93.0103 267.1025 15.08846889120458,6917.859,95.437,540.543,538.906,0.0
51137.0,STARLINK-3180,PAYLOAD,2024-03-15 15:30:41,15.08834716,0.0001121,53.2172,309.4767,97.328,262.784,2.4459e-05,1.01e-06,0.0,0 STARLINK-3180,1 51137U 22005AK  24075.64630857  .00000101  00000-0  24459-4 0  9993,2 51137  53.2172 309.4767 0001121  97.3280 262.7840 15.08834716120543,6917.897,95.438,540.537,538.986,0.0
51137.0,STARLINK-3180,PAYLOAD,2024-03-15 21:52:13,15.08838851,0.0001323,53.2179,308.2878,91.6088,268.5056,-4.1297e-05,-9.45e-06,0.0,0 STARLINK-3180,1 51137U 22005AK  24075.91126997 -.00000945  00000-0 -41297-4 0  9995,2 51137  53.2179 308.2878 0001323  91.6088 268.5056 15.08838851119474,6917.884,95.438,540.664,538.834,0.0
51137.0,STARLINK-3180,PAYLOAD,2024-03-16 01:02:59,15.08840237,0.000115,53.217,307.6924,92.8284,267.284,-3.5734e-05,-8.56e-06,0.0,0 STARLINK-3180,1 51137U 22005AK  24076.04374849 -.00000856  00000-0 -35734-4 0  9991,2 51137  53.2170 307.6924 0001150  92.8284 267.2840 15.08840237119499,6917.88,95.438,540.54,538.949,0.0
51137.0,STARLINK-3180,PAYLOAD,2024-03-16 20:07:37,15.08835151,9.33e-05,53.2167,304.1249,86.128,273.9819,0.00018348,2.633e-05,0.0,0 STARLINK-3180,1 51137U 22005AK  24076.83862671  .00002633  00000-0  18348-3 0  9997,2 51137  53.2167 304.1249 0000933  86.1280 273.9819 15.08835151120724,6917.895,95.438,540.406,539.115,0.0
51137.0,STARLINK-3180,PAYLOAD,2024-03-16 21:43:00,15.08847243,0.0001156,53.2171,303.8276,99.7141,260.3982,7.3961e-05,8.9e-06,0.0,0 STARLINK-3180,1 51137U 22005AK  24076.90486206  .00000890  00000-0  73961-4 0  9997,2 51137  53.2171 303.8276 0001156  99.7141 260.3982 15.08847243119622,6917.858,95.437,540.523,538.924,0.0
51137.0,STARLINK-3180,PAYLOAD,2024-03-17 00:53:46,15.08849791,0.0001146,53.2167,303.2318,103.2269,256.8851,8.4898e-05,1.064e-05,0.0,0 STARLINK-3180,1 51137U 22005AK  24077.03733949  .00001064  00000-0  84898-4 0  9996,2 51137  53.2167 303.2318 0001146 103.2269 256.8851 15.08849791120750,6917.85,95.437,540.508,538.923,0.0
